_id,ADDRESS_POINT_ID,ADDRESS_NUMBER,LINEAR_NAME_FULL,ADDRESS_FULL,POSTAL_CODE,MUNICIPALITY,CITY,CENTRELINE_ID,LO_NUM,LO_NUM_SUF,HI_NUM,HI_NUM_SUF,LINEAR_NAME_ID,WARD_NAME,X,Y,LONGITUDE,LATITUDE,MI_PRINX,OBJECTID,CAPACITY,MULTIMODAL,SEASONAL,SHELTERED,SURFACE,STATUS,LOCATION,NOTES,MAP_CLASS,geometry
965,51630,5,Bartonville Ave E,5 Bartonville Ave E,M6M 2B1,YORK,Toronto,20112838,5,,,,433,York South-Weston (505),305236.72,4838837.33,-79.49458594,43.68949318,2876415,1,8,No,No,No,asphalt,Delivered,,No bolt down - in York District,Multi-Bike Rack,"{u'type': u'Point', u'coordinates': (-79.4945826627, 43.6894845939)}"
966,310564,150,Borough Dr,150 Borough Dr,M1P 4N7,SCARBOROUGH,Toronto,107945,150,,,,7397,Scarborough Centre (2121),324342.97,4848123.133,-79.25724096,43.77281059,3838259,2,8,Yes,No,No,,Installed,Scarborough Civic Centre,adjacent to civic centre & Square,Multi-Bike Rack,"{u'type': u'Point', u'coordinates': (-79.2572409578, 43.7728105957)}"
967,367443,71,New Forest Sq,71 New Forest Sq,M1V 2Z6,SCARBOROUGH,Toronto,20050441,71,,,,9497,Scarborough-Agincourt (2222),320288.194,4853692.092,-79.30745062,43.82304172,1739719,3,8,No,No,No,concrete,Installed,,60m south of Steeles on W side of Kennedy (closest valid address),Multi-Bike Rack,"{u'type': u'Point', u'coordinates': (-79.3074473907, 43.8230331061)}"
968,379258,95,River Grove Dr,95 River Grove Dr,M1W 3T8,SCARBOROUGH,Toronto,20052191,95,,,,8803,Scarborough-Agincourt (2222),319488.988,4853458.528,-79.31739288,43.8209557,1926239,4,8,No,No,No,concrete,Installed,,S-W corner of Birchmount & Steeles (closest valid address),Multi-Bike Rack,"{u'type': u'Point', u'coordinates': (-79.317389651, 43.8209470944)}"
969,394585,24,Victoria Park Ave,24 Victoria Park Ave,M4E 3R9,SCARBOROUGH,Toronto,113274,24,,,,370,Beaches-East York (1919),322456.763,4837291.786,-79.28102949,43.67537166,2770103,5,8,No,No,No,,Installed,,One 8-bike rack on TTC property,Multi-Bike Rack,"{u'type': u'Point', u'coordinates': (-79.2810262939, 43.675363068)}"
970,772775,315,Bloor St W,315 Bloor St W,M5S 1A3,former TORONTO,Toronto,1142564,315,,,,458,University-Rosedale (1111),312980.407,4836394.046,-79.39856569,43.66745553,1591359,6,8,No,No,No,concrete,Installed,,White mark,Multi-Bike Rack,"{u'type': u'Point', u'coordinates': (-79.3985624501, 43.6674469424)}"
971,772800,398,Bloor St W,398 Bloor St W,M5S 1X4,former TORONTO,Toronto,1142870,398,,,,458,University-Rosedale (1111),312272.025,4836246.425,-79.4073517,43.6661342,2042974,7,16,No,No,No,asphalt,Approved,,50m north of Bloor,Multi-Bike Rack,"{u'type': u'Point', u'coordinates': (-79.4073484624, 43.6661256152)}"
972,772833,481,Bloor St W,481 Bloor St W,M5S 1X9,former TORONTO,Toronto,1142870,481,,,,458,University-Rosedale (1111),312290.721,4836205.138,-79.40712045,43.66576237,1755303,8,8,No,No,No,asphalt,Approved,,bikes face east,Multi-Bike Rack,"{u'type': u'Point', u'coordinates': (-79.4071172093, 43.6657537894)}"
973,772852,509,Bloor St W,509 Bloor St W,M5S 1Y2,former TORONTO,Toronto,1142919,509,,,,458,University-Rosedale (1111),312188.433,4836172.486,-79.40838924,43.66546948,2459164,9,8,No,No,No,asphalt,Installed,,in exchange for Borden corral,Multi-Bike Rack,"{u'type': u'Point', u'coordinates': (-79.4083859965, 43.6654609016)}"
974,772899,612,Bloor St W,612 Bloor St W,M6G 1K7,former TORONTO,Toronto,1143160,612,,,,458,University-Rosedale (1111),311748.761,4836091.279,-79.41384207,43.66474275,1777979,10,8,No,No,No,concrete,Installed,,,Multi-Bike Rack,"{u'type': u'Point', u'coordinates': (-79.4138388158, 43.66473417)}"
975,773004,813,Bloor St W,813 Bloor St W,M6G 1L8,former TORONTO,Toronto,30039479,813,,,,458,University-Rosedale (1111),311109.921,4835848.42,-79.42176294,43.66255381,3302429,11,8,No,No,No,,Installed,,Montrose - Dufferin Streetscaping,Multi-Bike Rack,"{u'type': u'Point', u'coordinates': (-79.4217629458, 43.6625538116)}"
976,773067,890,Bloor St W,890 Bloor St W,M6G 1M5,former TORONTO,Toronto,1143576,890,,,,458,University-Rosedale (1111),310802.452,4835811.588,-79.42557893,43.6622334,1811755,12,8,Yes,No,No,concrete,Approved,Ossington TTC,adjacent Bike Share stn - councillor request,Multi-Bike Rack,"{u'type': u'Point', u'coordinates': (-79.425575677, 43.6622248201)}"
977,773157,1032,Bloor St W,1032 Bloor St W,M6H 1M2,former TORONTO,Toronto,1143789,1032,,,,458,Davenport (909),310316.191,4835670.313,-79.43160951,43.66096551,2708366,13,8,No,No,No,,Installed,,One 8-bike rack,Multi-Bike Rack,"{u'type': u'Point', u'coordinates': (-79.4316062598, 43.6609569225)}"
978,773158,1034,Bloor St W,1034 Bloor St W,M6H 1M3,former TORONTO,Toronto,1143821,1034,,,,458,Davenport (909),310289.746,4835662.287,-79.43193747,43.66089346,2512369,14,5,No,No,No,,Installed,,One 5-bike angled rack,Multi-Bike Rack (Angled),"{u'type': u'Point', u'coordinates': (-79.4319342255, 43.6608848734)}"
979,773911,122,Bond St,122 Bond St,M5B 1X8,former TORONTO,Toronto,14021112,122,,,,3029,Toronto Centre (1313),314548.453,4835277.553,-79.37914202,43.6573867,2034865,15,16,No,No,No,marble paver,Installed,,white mark,Multi-Bike Rack,"{u'type': u'Point', u'coordinates': (-79.3791387852, 43.6573781216)}"
980,773913,137,Bond St,137 Bond St,M5B 1Y2,former TORONTO,Toronto,14021112,137,,,,3029,Toronto Centre (1313),314582.307,4835326.994,-79.3787214,43.65783129,1862386,16,8,No,No,No,concrete,Installed,,"bikes face east, white mark",Multi-Bike Rack,"{u'type': u'Point', u'coordinates': (-79.3787181688, 43.6578227118)}"
981,785313,429,College St,429 College St,M5T 1T2,former TORONTO,Toronto,1144402,429,,,,9765,University-Rosedale (1111),312278.382,4835152.996,-79.40728803,43.65629181,1518130,17,8,No,No,No,concrete,Installed,,5m from info pillar,Multi-Bike Rack,"{u'type': u'Point', u'coordinates': (-79.4072847841, 43.6562832334)}"
982,785507,802,College St,802 College St,M6G 1C8,former TORONTO,Toronto,1144782,802,,,,9765,University-Rosedale (1111),311115.01,4834991.942,-79.42171311,43.6548529,1984091,18,8,No,No,No,pavers,Installed,,,Multi-Bike Rack,"{u'type': u'Point', u'coordinates': (-79.4217098647, 43.6548443189)}"
983,785590,940,College St,940 College St,M6H 1A5,former TORONTO,Toronto,14018364,940,,,,9765,Davenport (909),310718.437,4834869.227,-79.42663096,43.65375156,2583303,19,8,No,No,No,concrete,Installed,,Councillor request,Multi-Bike Rack,"{u'type': u'Point', u'coordinates': (-79.4266277066, 43.65374298)}"
984,825934,55,John St,55 John St,M5V 3C6,former TORONTO,Toronto,1146312,55,,,,9747,Spadina-Fort York (1010),313760.259,4834029.49,-79.38893473,43.64616238,2825729,20,16,No,No,No,,Installed,Metro Hall,at rotunda,Multi-Bike Rack,"{u'type': u'Point', u'coordinates': (-79.3889314921, 43.6461537935)}"
985,828085,200,King St E,200 King St E,M5A 3W8,former TORONTO,Toronto,1145266,200,,,,3779,Toronto Centre (1313),315271.688,4834581.231,-79.37018888,43.65110905,2728735,21,16,No,No,No,,Installed,,east side of George north of King in No Parking zone,Multi-Bike Rack,"{u'type': u'Point', u'coordinates': (-79.3701856495, 43.6511004642)}"
986,828221,150,King St W,150 King St W,M5H 1J9,former TORONTO,Toronto,1145855,150,,,,3780,Spadina-Fort York (1010),314139.041,4834258.916,-79.3842355,43.64822286,2778660,22,8,Yes,No,No,marble,Installed,King TTC,,Multi-Bike Rack,"{u'type': u'Point', u'coordinates': (-79.3842322746, 43.6482142785)}"
987,856375,100,Queen St W,100 Queen St W,M5H 2N1,former TORONTO,Toronto,1145216,100,,,,4238,Spadina-Fort York (1010),314187.308,4834770.892,-79.38362506,43.65282214,4326298,23,40,No,No,No,,Installed,City Hall,Inside parking garage,Multi-Bike Rack,"{u'type': u'Point', u'coordinates': (-79.3836250552, 43.6528221423)}"
988,856701,686,Queen St W,686 Queen St W,M6J 1E7,former TORONTO,Toronto,1146191,686,,,,4238,Spadina-Fort York (1010),312226.422,4834074.763,-79.40794703,43.64658678,1824985,24,10,No,No,Yes,,Installed,,on the Euclid boulevard 25m north of Queen,Bike Shelter,"{u'type': u'Point', u'coordinates': (-79.4079437965, 43.6465782036)}"
989,866475,180,Shaw St,180 Shaw St,M6J 2W5,former TORONTO,Toronto,14018156,180,,,,4388,Spadina-Fort York (1010),311448.503,4834109.574,-79.41758951,43.64690749,2662860,25,18,No,No,Yes,,Installed,,Queen West Parking Study; Artscape Youngplace,Bike Shelter,"{u'type': u'Point', u'coordinates': (-79.417586261, 43.6468989084)}"
990,880972,241,Wellington St W,241 Wellington St W,,former TORONTO,Toronto,1146352,241,,,,4652,Spadina-Fort York (1010),313673.154,4833895.877,-79.39001664,43.64496072,2708750,26,16,No,No,No,concrete,Installed,,"on John St, 50m south of Wellington",Multi-Bike Rack,"{u'type': u'Point', u'coordinates': (-79.3900134102, 43.6449521398)}"
991,887713,1140,Yonge St,1140 Yonge St,M4W 2L8,former TORONTO,Toronto,1140465,1140,,,,4733,University-Rosedale (1111),313584.716,4837734.984,-79.3910504,43.67951883,2567776,27,8,No,No,No,concrete,Installed,,west of post box,Multi-Bike Rack,"{u'type': u'Point', u'coordinates': (-79.3910471598, 43.679510244)}"
992,2767344,5,Bellevue Ave,5 Bellevue Ave,,former TORONTO,Toronto,2767316,5,,,,2983,University-Rosedale (1111),312711.28,4834868.923,-79.40192199,43.65372171,3835209,28,14,No,No,No,,Proposed,,east side of Augusta at park in P& D,Multi-Bike Rack,"{u'type': u'Point', u'coordinates': (-79.4019219861, 43.6537217166)}"
993,2854062,522,University Ave,522 University Ave,M5G 1W7,former TORONTO,Toronto,2854059,522,,,,4583,University-Rosedale (1111),313722.621,4835114.238,-79.38938336,43.65592702,1684029,29,16,No,No,No,concrete,Installed,,adjacent to planters,Multi-Bike Rack,"{u'type': u'Point', u'coordinates': (-79.3893801204, 43.6559184352)}"
994,3120556,1030,King St W,1030 King St W,M6K 0B4,former TORONTO,Toronto,3155022,1030,,,,3780,Spadina-Fort York (1010),311596.538,4833518.917,-79.41576192,43.64158943,2290040,30,16,No,No,No,concrete,Installed,,at Strachan  and west at Sleep Country,Multi-Bike Rack,"{u'type': u'Point', u'coordinates': (-79.4157586755, 43.6415808537)}"
995,6047970,901,King St W,901 King St W,M5V 3H5,former TORONTO,Toronto,14024874,901,,,,3780,Spadina-Fort York (1010),311960.52,4833551.689,-79.41125002,43.64188101,1560247,31,8,No,No,No,pavers,Installed,,white mark,Multi-Bike Rack,"{u'type': u'Point', u'coordinates': (-79.411246784, 43.6418724328)}"
996,6292601,3530,Sheppard Ave E,3530 Sheppard Ave E,M1T 3K7,SCARBOROUGH,Toronto,6292597,3530,,,,6698,Scarborough-Agincourt (2222),320649.237,4849046.232,-79.30309947,43.78121636,2527726,32,8,No,No,No,,Installed,,Mayor's Office request,Multi-Bike Rack,"{u'type': u'Point', u'coordinates': (-79.3030962421, 43.7812077533)}"
997,6620141,991,Woodbine Ave,991 Woodbine Ave,,former TORONTO,Toronto,14023398,991,,,,391,Beaches-East York (1919),319894.534,4838513.174,-79.31277112,43.68642215,3167183,33,32,Yes,No,No,concrete,Approved,Woodbine TTC,Awaiting TTC construction (Woodbine Station),Multi-Bike Rack,"{u'type': u'Point', u'coordinates': (-79.3127678973, 43.6864135583)}"
998,6924847,725,Bathurst St,725 Bathurst St,M5S 2R5,former TORONTO,Toronto,6924827,725,,,,436,University-Rosedale (1111),312074.04,4835866.096,-79.4098118,43.6627127,2865477,34,14,No,No,No,,Installed,,"On grass, across from CSI/Theatre",Multi-Bike Rack,"{u'type': u'Point', u'coordinates': (-79.4098085572, 43.6627041126)}"
999,6924850,702,Bathurst St,702 Bathurst St,M5S 2R4,former TORONTO,Toronto,6924849,702,,,,436,University-Rosedale (1111),312017.894,4835870.27,-79.41050791,43.66275082,2449394,35,14,No,Yes,No,,Installed,,north side of Herrick,Bike Corral,"{u'type': u'Point', u'coordinates': (-79.4105046596, 43.6627422312)}"
1000,7389731,71,Second St,71 Second St,M8V 2X4,ETOBICOKE,Toronto,7389724,71,,,,2447,Etobicoke-Lakeshore (303),304818.87,4829303.634,-79.49976953,43.60367699,2197834,36,8,No,No,No,concrete,Installed,,0.5m back from limit of concrete,Multi-Bike Rack,"{u'type': u'Point', u'coordinates': (-79.4997662582, 43.6036684224)}"
1001,7466874,516,Glenlake Ave,516 Glenlake Ave,,former TORONTO,Toronto,7466844,516,,,,3546,Parkdale-High Park (404),306888.703,4835131.149,-79.47410482,43.65612124,3835905,37,8,No,No,No,brick pavers,Installed,,TDSB request for Ursula Franklin Academy,Multi-Bike Rack,"{u'type': u'Point', u'coordinates': (-79.474104822, 43.6561212464)}"
1002,7553263,1186,Queen St W,1186 Queen St W,M6J 1J6,former TORONTO,Toronto,7553262,1186,,,,4238,Davenport (909),310752.001,4833668.534,-79.42622808,43.64294342,3054362,38,14,No,No,No,,Installed,,"parking stall design; on Northcote, not Queen",Multi-Bike Rack,"{u'type': u'Point', u'coordinates': (-79.4262248353, 43.6429348457)}"
1003,7569577,798,Richmond St W,798 Richmond St W,M6J 3P3,former TORONTO,Toronto,7569576,798,,,,4277,Spadina-Fort York (1010),312075.976,4833913.68,-79.4098141,43.6451383,1684783,39,24,No,No,No,concrete,Installed,,on Niagara betw tree pits,Multi-Bike Rack,"{u'type': u'Point', u'coordinates': (-79.4098108572, 43.6451297245)}"
1004,7570973,12,Ossington Ave,12 Ossington Ave,M6J 2Y7,former TORONTO,Toronto,7570969,12,,,,4125,Spadina-Fort York (1010),311304.209,4833838.409,-79.41938141,43.64446791,3040336,40,5,No,No,No,concrete,Installed,,1m south of bus stop,Multi-Bike Rack (Angled),"{u'type': u'Point', u'coordinates': (-79.4193781682, 43.6444593301)}"
1005,7641979,21,Gerrard St E,21 Gerrard St E,,former TORONTO,Toronto,7641994,21,,,,3495,Toronto Centre (1313),314389.988,4835475.561,-79.38110314,43.6591711,3168834,41,16,No,No,No,concrete,Installed,,White mark,Multi-Bike Rack,"{u'type': u'Point', u'coordinates': (-79.3810999114, 43.6591625171)}"
1006,10924257,83,Gould St,83 Gould St,,former TORONTO,Toronto,10924256,83,,,,3563,Toronto Centre (1313),314752.841,4835385.52,-79.37660603,43.65835585,2526316,42,8,No,No,No,brick pavers,Approved,,On hold,Multi-Bike Rack,"{u'type': u'Point', u'coordinates': (-79.3766028005, 43.6583472609)}"
1007,7642554,277,Victoria St,277 Victoria St,M5B 1W2,former TORONTO,Toronto,30075808,277,,,,9790,Toronto Centre (1313),314532.471,4835186.52,-79.37933858,43.65655891,4096749,43,8,No,No,No,concrete,Installed,,,Multi-Bike Rack,"{u'type': u'Point', u'coordinates': (-79.3793385702, 43.6565589128)}"
1008,7730077,400,Yonge St,400 Yonge St,,former TORONTO,Toronto,7730098,400,,,,4733,University-Rosedale (1111),314265.161,4835517.516,-79.38265005,43.65955035,3176699,44,8,No,No,No,concrete,Installed,,white mark,Multi-Bike Rack,"{u'type': u'Point', u'coordinates': (-79.3826468223, 43.6595417671)}"
1009,7730108,350,Victoria St,350 Victoria St,M5B 2K3,former TORONTO,Toronto,30060911,350,,,,9790,Toronto Centre (1313),314440.225,4835320.447,-79.38047983,43.65776563,3802769,45,8,No,No,No,pavers,Installed,,white mark,Multi-Bike Rack,"{u'type': u'Point', u'coordinates': (-79.380479826, 43.6577656355)}"
1010,7792268,595,Bay St,595 Bay St,M5G 2C2,former TORONTO,Toronto,7792266,595,,,,2962,University-Rosedale (1111),314213.174,4835147.573,-79.38330106,43.65622103,2103912,46,8,No,No,No,concrete,Installed,,adjacent to planter,Multi-Bike Rack,"{u'type': u'Point', u'coordinates': (-79.3832978279, 43.6562124477)}"
1011,7792587,790,Bay St,790 Bay St,M5G 1N8,former TORONTO,Toronto,7792579,790,,,,2962,University-Rosedale (1111),313980.45,4835617.571,-79.38617832,43.66045455,2383398,47,8,No,No,No,pavers,Installed,,,Multi-Bike Rack,"{u'type': u'Point', u'coordinates': (-79.3861750845, 43.6604459644)}"
1012,7929475,357,Bay St,357 Bay St,M5H 2T7,former TORONTO,Toronto,7929469,357,,,,2962,Toronto Centre (1313),314409.295,4834550.38,-79.38088024,43.65084299,2561155,48,8,No,No,No,concrete,Installed,,white mark,Multi-Bike Rack,"{u'type': u'Point', u'coordinates': (-79.3808769999, 43.6508344042)}"
1013,7929674,200,King St W,200 King St W,M5H 3T4,former TORONTO,Toronto,7929673,200,,,,3780,Spadina-Fort York (1010),314019.039,4834224.421,-79.38572365,43.64791386,1684104,49,8,Yes,No,No,marble,Installed,King TTC,,Multi-Bike Rack,"{u'type': u'Point', u'coordinates': (-79.3857204176, 43.6479052738)}"
1014,7939998,10,Linnsmore Cres,10 Linnsmore Cres,M4J 4J6,former TORONTO,Toronto,14023269,10,,,,11375,Toronto-Danforth (1414),318482.611,4838083.36,-79.33029539,43.68258062,2047844,50,8,Yes,No,No,concrete,Installed,Greenwood TTC,just south of doors,Multi-Bike Rack,"{u'type': u'Point', u'coordinates': (-79.3302921709, 43.6825720317)}"
1015,7939998,10,Linnsmore Cres,10 Linnsmore Cres,M4J 4J6,former TORONTO,Toronto,14023269,10,,,,11375,Toronto-Danforth (1414),318482.611,4838083.36,-79.33029539,43.68258062,2047844,51,10,Yes,No,No,concrete,Installed,Greenwood TTC,,Multi-Bike Rack,"{u'type': u'Point', u'coordinates': (-79.3302921709, 43.6825720317)}"
1016,7994464,40,High Park Ave,40 High Park Ave,M6P 2S1,former TORONTO,Toronto,7994458,40,,,,3660,Parkdale-High Park (404),307512.807,4834974.727,-79.4663714,43.6547198,2146844,52,20,Yes,No,Yes,,Installed,High Park TTC,"Public Realm project,  Installed at back of walk",Bike Shelter,"{u'type': u'Point', u'coordinates': (-79.4663681355, 43.6547112224)}"
1017,8292528,666,Queen St E,666 Queen St E,M4M 1G8,former TORONTO,Toronto,8292524,666,,,,4237,Toronto-Danforth (1414),316777.445,4835427.901,-79.35150051,43.65869889,4093504,53,8,No,No,No,concrete,Installed,,,Multi-Bike Rack,"{u'type': u'Point', u'coordinates': (-79.3515005143, 43.6586988939)}"
1018,8312904,1595,Dupont St,1595 Dupont St,M6P 3S8,former TORONTO,Toronto,8312902,1595,,,,3343,Davenport (909),308492.127,4836111.1,-79.45422257,43.66494447,2446517,54,8,No,No,No,pavers,Installed,,restaurant request,Multi-Bike Rack,"{u'type': u'Point', u'coordinates': (-79.4542193056, 43.6649358894)}"
1019,8344816,87,Front St E,87 Front St E,M5E 1B8,former TORONTO,Toronto,8344810,87,,,,3471,Toronto Centre (1313),315109.595,4834319.533,-79.37220329,43.64875567,3006161,55,14,No,Yes,No,,Installed,,"lay-by on south side, c. Market St - BIA in favour",Bike Corral,"{u'type': u'Point', u'coordinates': (-79.3722000573, 43.6487470958)}"
1020,8353493,266,King St E,266 King St E,M5A 1K3,former TORONTO,Toronto,8353517,266,,,,3779,Toronto Centre (1313),315581.584,4834677.515,-79.36634528,43.6519713,2593639,56,8,No,No,No,concrete,Installed,,,Multi-Bike Rack,"{u'type': u'Point', u'coordinates': (-79.3663420506, 43.6519627217)}"
1021,8408498,2,Bloor St W,2 Bloor St W,M4W 3E2,former TORONTO,Toronto,10759265,2,,,,458,University-Rosedale (1111),313893.86,4836723.343,-79.38723329,43.67040902,2772524,57,8,Yes,No,No,concrete,Installed,Bloor-Yonge TTC,north of post-and-rings on Yonge at Cumberland Terrace entrance,Multi-Bike Rack,"{u'type': u'Point', u'coordinates': (-79.3872300479, 43.670400436)}"
1022,8408615,12,Madison Ave,12 Madison Ave,M5R 2S1,former TORONTO,Toronto,30104520,12,,,,3896,University-Rosedale (1111),312596.587,4836428.278,-79.40332134,43.6677592,4281523,58,8,Yes,No,No,concrete,Installed,,,Multi-Bike Rack,"{u'type': u'Point', u'coordinates': (-79.4033213403, 43.6677591999)}"
1023,8408616,14,Madison Ave,14 Madison Ave,M5R 2S1,former TORONTO,Toronto,30104520,14,,,,3896,University-Rosedale (1111),312592.51,4836440.19,-79.40337172,43.66786647,4281541,59,8,Yes,No,No,concrete,TBD,,107m N of Bloor,Multi-Bike Rack,"{u'type': u'Point', u'coordinates': (-79.4033717235, 43.6678664664)}"
1024,8416837,692,Bloor St W,692 Bloor St W,M6G 1L4,former TORONTO,Toronto,8416823,692,,,,458,University-Rosedale (1111),311458.959,4836006.894,-79.4174365,43.66398582,1543974,60,16,Yes,No,No,concrete,Installed,,,Multi-Bike Rack,"{u'type': u'Point', u'coordinates': (-79.4174332539, 43.6639772448)}"
1025,8416838,693,Bloor St W,693 Bloor St W,M6G 1L5,former TORONTO,Toronto,8416823,693,,,,458,University-Rosedale (1111),311465.625,4835958.433,-79.41735445,43.66354956,2916406,61,8,No,No,No,concrete,Installed,,,Multi-Bike Rack,"{u'type': u'Point', u'coordinates': (-79.4173511984, 43.6635409715)}"
1026,8416907,675,Bloor St W,675 Bloor St W,M6G 1L3,former TORONTO,Toronto,8416891,675,,,,458,University-Rosedale (1111),311554.096,4835987.991,-79.4162571,43.66381481,2602654,62,48,No,No,No,asphalt,Installed,,3 racks moved from Wood St for Bike Share relocation,Multi-Bike Rack,"{u'type': u'Point', u'coordinates': (-79.416253855, 43.6638062345)}"
1027,8417835,1,Albany Ave,1 Albany Ave,M5R 3C2,former TORONTO,Toronto,14014600,1,,,,2859,University-Rosedale (1111),312063.189,4836201.155,-79.40994183,43.66572878,2322513,63,8,No,No,No,asphalt,TBD,,,Multi-Bike Rack,"{u'type': u'Point', u'coordinates': (-79.4099385909, 43.6657201947)}"
1028,9212592,275,Cherry St,275 Cherry St,M5A 3L3,former TORONTO,Toronto,14066690,275,,,,3154,Toronto-Danforth (1414),316713.043,4833972.281,-79.35233432,43.645606,2417310,64,8,No,No,No,brick paver,TBD,,Determine if needed,Multi-Bike Rack,"{u'type': u'Point', u'coordinates': (-79.3523310914, 43.6455974145)}"
1029,9468140,20,Northcote Ave,20 Northcote Ave,,former TORONTO,Toronto,14018614,20,,,,4070,Davenport (909),310735.047,4833689.706,-79.426438,43.64313414,2647569,65,10,No,No,Yes,,Installed,,"on the boulevard, 40m north of Queen",Bike Shelter,"{u'type': u'Point', u'coordinates': (-79.4264347477, 43.6431255581)}"
1030,9879850,483,Bay St,483 Bay St,M5G 2C9,former TORONTO,Toronto,9879849,483,,,,2962,Toronto Centre (1313),314314.445,4834874.167,-79.38205035,43.65375872,2475636,66,8,No,No,No,concrete,Approved,,white mark east of bike parking,Multi-Bike Rack,"{u'type': u'Point', u'coordinates': (-79.3820471151, 43.6537501401)}"
1031,9980057,1978,Queen St E,1978 Queen St E,M4L 1H8,former TORONTO,Toronto,9980046,1978,,,,4237,Beaches-East York (1919),320836.643,4836688.879,-79.30113953,43.66998145,1766950,67,8,No,No,No,concrete,Installed,,To replace P&R (2),Multi-Bike Rack,"{u'type': u'Point', u'coordinates': (-79.3011363155, 43.669972861)}"
1032,9980658,449,Parliament St,449 Parliament St,M5A 3A3,former TORONTO,Toronto,14023933,449,,,,4162,Toronto Centre (1313),315513.338,4835959.868,-79.36716587,43.66351517,2211932,68,8,No,No,No,concrete,Installed,,adjacent to south side of No Frills,Multi-Bike Rack,"{u'type': u'Point', u'coordinates': (-79.3671626415, 43.6635065844)}"
1033,10034904,953,Gerrard St E,953 Gerrard St E,M4M 1Z4,former TORONTO,Toronto,30107057,953,,,,3495,Toronto-Danforth (1414),317751.662,4836468.984,-79.33939699,43.66805367,4297754,69,16,No,No,No,concrete,Installed,,,Multi-Bike Rack,"{u'type': u'Point', u'coordinates': (-79.339396983, 43.6680536711)}"
1034,10180172,621,King St W,621 King St W,M5V 1M5,former TORONTO,Toronto,14674278,621,,,,3780,Spadina-Fort York (1010),312774.849,4833789.29,-79.40115308,43.64401146,3037504,70,8,No,No,No,concrete,Installed,,east side of planter,Multi-Bike Rack,"{u'type': u'Point', u'coordinates': (-79.401149846, 43.644002883)}"
1035,10222755,511,King St W,511 King St W,M5V 2Z4,former TORONTO,Toronto,10222754,511,,,,3780,Spadina-Fort York (1010),313041.03,4833858.566,-79.39785266,43.64463214,2243171,71,8,No,No,No,concrete,Installed,,west of main door,Multi-Bike Rack,"{u'type': u'Point', u'coordinates': (-79.3978494175, 43.6446235513)}"
1036,10223670,441,King St W,441 King St W,M5V 1K4,former TORONTO,Toronto,10223667,441,,,,3780,Spadina-Fort York (1010),313216.659,4833917.14,-79.39567153,43.64514883,3339643,72,8,No,No,No,concrete,Installed,,,Multi-Bike Rack,"{u'type': u'Point', u'coordinates': (-79.3956715229, 43.6451488397)}"
1037,10223676,468,King St W,468 King St W,M5V 1L8,former TORONTO,Toronto,10223667,468,,,,3780,Spadina-Fort York (1010),313196.016,4833961.135,-79.39592996,43.64555367,2696110,73,8,No,No,No,concrete,Installed,,west of main door,Multi-Bike Rack,"{u'type': u'Point', u'coordinates': (-79.3959267185, 43.6455450875)}"
1038,10223683,500,King St W,500 King St W,M5V 1L9,former TORONTO,Toronto,10223667,500,,,,3780,Spadina-Fort York (1010),313125.182,4833935.558,-79.39680837,43.64532424,2680137,74,8,No,No,No,concrete,Installed,,,Multi-Bike Rack,"{u'type': u'Point', u'coordinates': (-79.396805138, 43.6453156558)}"
1039,10258457,40,Orchard View Blvd,40 Orchard View Blvd,M4R 1B9,former TORONTO,Toronto,10258454,40,,,,4111,Eglinton-Lawrence (808),312853.847,4840929.128,-79.40006729,43.70827849,3006674,75,8,No,No,No,concrete,Installed,,Public Library,Multi-Bike Rack,"{u'type': u'Point', u'coordinates': (-79.4000640485, 43.7082699051)}"
1040,10334643,12,Emerson Ave,12 Emerson Ave,M6H 3S8,former TORONTO,Toronto,14012771,12,,,,3396,Davenport (909),309533.409,4835494.857,-79.44131654,43.65939156,2196073,76,14,Yes,Yes,No,,Installed,,west side of Emerson at subway lay-by,Bike Corral,"{u'type': u'Point', u'coordinates': (-79.4413132922, 43.6593829779)}"
1041,10335151,695,Lansdowne Ave,695 Lansdowne Ave,M6H 3Y9,former TORONTO,Toronto,14012788,695,,,,3814,Davenport (909),309412.676,4835466.562,-79.44281043,43.65912904,3219969,77,8,Yes,No,No,,Installed,Lansdowne TTC,Councillor request,Multi-Bike Rack,"{u'type': u'Point', u'coordinates': (-79.4428104295, 43.6591290436)}"
1042,10386594,743,Pape Ave,743 Pape Ave,M4K 3T1,former TORONTO,Toronto,10386591,743,,,,280,Toronto-Danforth (1414),317296.358,4837782.78,-79.34501561,43.67989591,2293016,78,32,Yes,No,No,,Installed,Pape TTC,Four 8-bike racks on TTC property,Multi-Bike Rack,"{u'type': u'Point', u'coordinates': (-79.3450123848, 43.679887324)}"
1043,10430677,2000,Yonge St,2000 Yonge St,M4S 1Z7,former TORONTO,Toronto,10430667,2000,,,,4733,Toronto-St. Paul's (1212),313071.102,4840063.34,-79.39738479,43.70048292,2078078,79,8,No,No,No,concrete,Installed,,on Glebe Rd W.,Multi-Bike Rack,"{u'type': u'Point', u'coordinates': (-79.3973815441, 43.7004743322)}"
1044,10494377,222,Spadina Ave,222 Spadina Ave,M5T 3B3,former TORONTO,Toronto,10494181,222,,,,4426,Spadina-Fort York (1010),313041.108,4834559.028,-79.397841,43.65093724,2882926,80,16,No,No,No,concrete,Installed,,,Multi-Bike Rack,"{u'type': u'Point', u'coordinates': (-79.397837765, 43.6509286639)}"
1045,10537872,175,Mount Olive Dr,175 Mount Olive Dr,M9V 2E3,ETOBICOKE,Toronto,30108313,175,,,,2145,Etobicoke North (101),297088.705,4845566.007,-79.59575187,43.75001113,4305375,81,32,No,No,No,,Installed,,four 8-bike racks TDSB install at Smithfield M.S.,Multi-Bike Rack,"{u'type': u'Point', u'coordinates': (-79.5957518765, 43.7500111297)}"
1046,10576714,892,College St,892 College St,M6H 1A4,former TORONTO,Toronto,10576713,892,,,,9765,Davenport (909),310818.099,4834899.262,-79.42539509,43.65402112,1858675,82,8,No,No,No,concrete,Installed,,,Multi-Bike Rack,"{u'type': u'Point', u'coordinates': (-79.425391839, 43.6540125358)}"
1047,10576975,834,College St,834 College St,M6H 1A2,former TORONTO,Toronto,10576972,834,,,,9765,Davenport (909),311017.09,4834952.648,-79.42292752,43.65450003,2335698,83,8,No,No,No,concrete,Installed,,,Multi-Bike Rack,"{u'type': u'Point', u'coordinates': (-79.422924276, 43.654491445)}"
1048,10576992,860,College St,860 College St,M6H 1A2,former TORONTO,Toronto,10576972,860,,,,9765,Davenport (909),310942.107,4834948.806,-79.42385716,43.65446607,2883544,84,8,No,No,No,brick pavers,Installed,,,Multi-Bike Rack,"{u'type': u'Point', u'coordinates': (-79.4238539128, 43.6544574848)}"
1049,10736597,362,Bloor St W,362 Bloor St W,M5S 1X2,former TORONTO,Toronto,10736589,362,,,,458,University-Rosedale (1111),312398.148,4836289.651,-79.4057872,43.66652202,1777874,85,8,Yes,No,No,concrete,Installed,Spadina TTC,,Multi-Bike Rack,"{u'type': u'Point', u'coordinates': (-79.4057839572, 43.6665134282)}"
1050,10736616,513,Bloor St W,513 Bloor St W,M5S 1Y4,former TORONTO,Toronto,10736609,513,,,,458,University-Rosedale (1111),312156.039,4836168.623,-79.40879096,43.66543504,3012709,86,8,No,No,No,asphalt,Approved,,at end of parking box/ on hold,Multi-Bike Rack,"{u'type': u'Point', u'coordinates': (-79.408787723, 43.6654264507)}"
1051,10736643,19,Spadina Rd,19 Spadina Rd,M5R 2S9,former TORONTO,Toronto,14239870,19,,,,4428,University-Rosedale (1111),312538.596,4836447.479,-79.40404341,43.66794123,2216427,87,16,Yes,No,No,,TBD,Spadina TTC,TPA Lot #231 property,Multi-Bike Rack,"{u'type': u'Point', u'coordinates': (-79.4040401596, 43.6679326402)}"
1052,10864283,28,Duncan St,28 Duncan St,,former TORONTO,Toronto,14036084,28,,,,3331,Spadina-Fort York (1010),313737.411,4834321.349,-79.38921312,43.64878977,1684105,88,14,No,Yes,No,,Installed,,opposite OCADU building,Bike Corral,"{u'type': u'Point', u'coordinates': (-79.3892098796, 43.6487811931)}"
1053,10864312,61,Front St W,61 Front St W,M5J 1E5,former TORONTO,Toronto,10864309,61,,,,3472,Spadina-Fort York (1010),314475.286,4833929.568,-79.38007328,43.64525399,2850404,89,72,Yes,No,No,,Installed,Union GO,indoor and outdoor,Multi-Bike Rack,"{u'type': u'Point', u'coordinates': (-79.3800700536, 43.6452454057)}"
1054,10906649,720,Bay St,720 Bay St,M5G 2K1,former TORONTO,Toronto,10906644,720,,,,2962,University-Rosedale (1111),314036.36,4835438.913,-79.38548817,43.65884569,2413629,90,8,No,No,No,pavers,Installed,,,Multi-Bike Rack,"{u'type': u'Point', u'coordinates': (-79.3854849355, 43.6588371126)}"
1055,11075760,95,Front St E,95 Front St E,M5E 1C2,former TORONTO,Toronto,11075761,95,,,,3471,Toronto Centre (1313),315166.501,4834367.854,-79.37149694,43.64918984,1977101,91,8,No,No,No,,Installed,,"St Lawrence Mkt renos: angled rack reclaimed for lack of use, one 8-bike",Multi-Bike Rack,"{u'type': u'Point', u'coordinates': (-79.3714937128, 43.6491812588)}"
1056,11180397,49,Givins St,49 Givins St,M6J 2X5,former TORONTO,Toronto,11180398,49,,,,3505,Spadina-Fort York (1010),311448.716,4834054.999,-79.41758754,43.64641624,3038912,92,8,No,No,No,,Installed,,Queen West Study,Multi-Bike Rack,"{u'type': u'Point', u'coordinates': (-79.4175842924, 43.6464076573)}"
1057,11272519,1560,Yonge St,1560 Yonge St,M4T 2S9,former TORONTO,Toronto,14242419,1560,,,,4733,Toronto-St. Paul's (1212),313254.344,4838864.186,-79.39513015,43.68968694,2325615,93,8,No,No,No,concrete,Installed,,on Delisle,Multi-Bike Rack,"{u'type': u'Point', u'coordinates': (-79.3951269012, 43.689678353)}"
1058,11272587,2180,Yonge St,2180 Yonge St,M4S 2B9,former TORONTO,Toronto,14230407,2180,,,,4733,Toronto-St. Paul's (1212),313000.767,4840525.87,-79.39825038,43.70464706,2232065,94,8,Yes,No,No,concrete,Proposed,Eglinton TTC,on sidewalk over subway track,Multi-Bike Rack,"{u'type': u'Point', u'coordinates': (-79.3982471385, 43.7046384672)}"
1059,11462071,245,Church St,245 Church St,,former TORONTO,Toronto,11462072,245,,,,503,Toronto Centre (1313),314689.562,4835307.009,-79.37739202,43.65764999,1511565,95,8,No,No,No,Concrete,Approved,,Pink marks,Multi-Bike Rack,"{u'type': u'Point', u'coordinates': (-79.3773887817, 43.6576414017)}"
1060,12107167,490,Bloor St W,490 Bloor St W,M5S 1X8,former TORONTO,Toronto,12107157,490,,,,458,University-Rosedale (1111),312077.425,4836190.966,-79.40976545,43.66563692,3012691,96,8,No,No,No,asphalt,Installed,,,Multi-Bike Rack,"{u'type': u'Point', u'coordinates': (-79.4097622063, 43.665628341)}"
1061,12107174,537,Bloor St W,537 Bloor St W,M5S 1Y5,former TORONTO,Toronto,12107157,537,,,,458,University-Rosedale (1111),312084.953,4836145.828,-79.40967272,43.66523055,3012694,97,8,No,No,No,asphalt,Approved,,at end of parking box/ on hold,Multi-Bike Rack,"{u'type': u'Point', u'coordinates': (-79.4096694708, 43.6652219654)}"
1062,12427667,665,Lawrence Ave W,665 Lawrence Ave W,,NORTH YORK,Toronto,12427668,665,,,,732,Eglinton-Lawrence (808),309303.79,4841760.58,-79.44411111,43.71579263,3128291,98,8,Yes,No,No,concrete,Approved,Lawrence West TTC,north side entrance,Multi-Bike Rack,"{u'type': u'Point', u'coordinates': (-79.4441078551, 43.7157840453)}"
1063,12562241,375,St Clair Ave W,375 St Clair Ave W,,former TORONTO,Toronto,30076115,375,,,,890,Toronto-St. Paul's (1212),311707.051,4838197.646,-79.41432903,43.68369463,4103980,99,20,Yes,No,Yes,,Installed,St Clair West TTC,"Public Realm project,  Installed at back of walk",Bike Shelter,"{u'type': u'Point', u'coordinates': (-79.4143290305, 43.6836946285)}"
1064,13968174,38,Orchard View Blvd,38 Orchard View Blvd,M4R 2G3,former TORONTO,Toronto,10258454,38,,,,4111,Eglinton-Lawrence (808),312884.793,4840923.256,-79.39968338,43.70822531,2210418,100,8,No,No,No,interlock,Installed,,,Multi-Bike Rack,"{u'type': u'Point', u'coordinates': (-79.3996801446, 43.7082167133)}"
1065,13991066,584,Bloor St W,584 Bloor St W,M6G 1K4,former TORONTO,Toronto,8353520,584,,,,458,University-Rosedale (1111),311841.077,4836132.092,-79.41269685,43.66510925,1661356,101,8,Yes,No,No,brick pavers,Installed,Bathurst TTC,,Multi-Bike Rack,"{u'type': u'Point', u'coordinates': (-79.4126936122, 43.6651006727)}"
1066,13991178,213,Delaware Ave,213 Delaware Ave,M6H 2T4,former TORONTO,Toronto,20033433,213,,,,3283,Davenport (909),310617.361,4835792.825,-79.42787406,43.66206598,2874672,102,5,Yes,No,No,,Installed,Ossington TTC,One 5-bike angled rack on TTC property,Multi-Bike Rack (Angled),"{u'type': u'Point', u'coordinates': (-79.4278708182, 43.6620573991)}"
1067,14120392,736,Bay St,736 Bay St,M5G 2M4,former TORONTO,Toronto,7792579,736,,,,2962,University-Rosedale (1111),314023.208,4835495.15,-79.38565028,43.65935206,2058168,103,8,No,No,No,pavers,Installed,,,Multi-Bike Rack,"{u'type': u'Point', u'coordinates': (-79.3856470368, 43.6593434836)}"
1068,14171704,300,Victoria St,300 Victoria St,,former TORONTO,Toronto,30075809,300,,,,9790,Toronto Centre (1313),314459.797,4835292.368,-79.38023768,43.65751263,4096755,104,8,No,No,No,concrete,Installed,,white mark,Multi-Bike Rack,"{u'type': u'Point', u'coordinates': (-79.3802376739, 43.6575126332)}"
1069,14188604,826,Yonge St,826 Yonge St,M4W 2H1,former TORONTO,Toronto,8677490,826,,,,4733,University-Rosedale (1111),313880.675,4836813.136,-79.38739527,43.67121743,2008928,105,8,No,No,No,concrete,Proposed,,north of post-and-rings on Yonge,Multi-Bike Rack,"{u'type': u'Point', u'coordinates': (-79.3873920393, 43.671208852)}"
1070,14199241,11,Charlotte St,11 Charlotte St,M5V 0M6,former TORONTO,Toronto,14025593,11,,,,3147,Spadina-Fort York (1010),313377.966,4834053.88,-79.39366988,43.64637784,4094529,106,8,No,No,No,pavers,Installed,,Councillor request,Multi-Bike Rack,"{u'type': u'Point', u'coordinates': (-79.3936698785, 43.6463778424)}"
1071,14206623,2198,Yonge St,2198 Yonge St,M4S 2B8,former TORONTO,Toronto,14230407,2198,,,,4733,Toronto-St. Paul's (1212),312986.352,4840664.091,-79.39842714,43.70589138,2862848,107,16,Yes,No,No,concrete,Installed,Eglinton TTC,,Multi-Bike Rack,"{u'type': u'Point', u'coordinates': (-79.3984238947, 43.7058827894)}"
1072,14207146,205,Spadina Ave,205 Spadina Ave,M5T 2C7,former TORONTO,Toronto,10494196,205,,,,4426,Spadina-Fort York (1010),313139.489,4834503.244,-79.39662227,43.65043402,2071735,108,16,No,No,No,,Installed,,lay-by,Bike Corral,"{u'type': u'Point', u'coordinates': (-79.3966190322, 43.6504254363)}"
1073,14210057,896,Danforth Ave,896 Danforth Ave,M4J 1L9,former TORONTO,Toronto,7930789,896,,,,86,Toronto-Danforth (1414),317759.352,4837824.259,-79.3392723,43.68026135,1720587,109,16,No,No,No,concrete,Approved,,Pink marks/approved for 2 racks,Multi-Bike Rack,"{u'type': u'Point', u'coordinates': (-79.33926907, 43.6802527581)}"
1074,14210930,1036,Bloor St W,1036 Bloor St W,M6H 1M3,former TORONTO,Toronto,1143821,1036,,,,458,Davenport (909),310289.418,4835655.226,-79.43194161,43.6608299,1894655,110,8,No,No,No,,Installed,,Montrose - Dufferin streetscaping,Multi-Bike Rack,"{u'type': u'Point', u'coordinates': (-79.4319383641, 43.6608213174)}"
1075,14210933,5,Salem Ave,5 Salem Ave,M6H 3C2,former TORONTO,Toronto,14011464,5,,,,4354,Davenport (909),310319.924,4835657.896,-79.43156335,43.66085371,2071514,111,8,No,No,No,,Installed,,Montrose - Dufferin streetscaping,Multi-Bike Rack,"{u'type': u'Point', u'coordinates': (-79.4315601024, 43.6608451251)}"
1076,14211049,5,Walmer Rd,5 Walmer Rd,,former TORONTO,Toronto,10759044,5,,,,940,University-Rosedale (1111),312430.832,4836310.694,-79.40538162,43.66671109,2071516,112,8,Yes,No,No,concrete,Installed,Spadina TTC,,Multi-Bike Rack,"{u'type': u'Point', u'coordinates': (-79.4053783829, 43.6667025083)}"
1077,14659357,350,King St W,350 King St W,M5V 3X5,former TORONTO,Toronto,10458506,350,,,,3780,Spadina-Fort York (1010),313637.612,4834084.012,-79.39045412,43.64665461,1604772,113,14,No,No,No,,Installed,,P&D adjacent to Bell Lightbox bike parking,Multi-Bike Rack,"{u'type': u'Point', u'coordinates': (-79.3904508904, 43.6466460322)}"
1078,20040470,65,Dundas St W,65 Dundas St W,M5G 2C3,former TORONTO,Toronto,7762832,65,,,,558,Toronto Centre (1313),314236.706,4835078.875,-79.38301052,43.65560236,2304022,114,32,No,No,No,concrete,Installed,,,Multi-Bike Rack,"{u'type': u'Point', u'coordinates': (-79.3830072852, 43.6555937759)}"
1079,20111213,22,Fort York Blvd,22 Fort York Blvd,M5V 3Z2,former TORONTO,Toronto,20035046,22,,,,15826,Spadina-Fort York (1010),313336.314,4833407.29,-79.39419964,43.64056672,1988105,115,8,No,No,No,concrete,Installed,,Moved from 351 Bremner Blvd to supermarket,Multi-Bike Rack,"{u'type': u'Point', u'coordinates': (-79.3941963993, 43.6405581342)}"
1080,20140670,101,Sherbourne St,101 Sherbourne St,M5A 2R3,former TORONTO,Toronto,1144819,101,,,,4391,Toronto Centre (1313),315374.004,4834865.982,-79.36891493,43.65367074,2211089,116,8,No,No,No,concrete,Installed,,,Multi-Bike Rack,"{u'type': u'Point', u'coordinates': (-79.3689116973, 43.6536621558)}"
1081,20362129,163,Dan Leckie Way,163 Dan Leckie Way,M5V 4A8,former TORONTO,Toronto,20364648,163,,,,17007,Spadina-Fort York (1010),313023.97,4833350.915,-79.39806861,43.6400542,3819492,117,8,No,No,No,concrete,Installed,,south side planter,Multi-Bike Rack,"{u'type': u'Point', u'coordinates': (-79.3980686082, 43.6400541998)}"
1082,20364714,82,Fort York Blvd,82 Fort York Blvd,M5V 4A6,former TORONTO,Toronto,30036751,82,,,,15826,Spadina-Fort York (1010),313128.681,4833347.442,-79.39677083,43.64002178,3792847,118,8,No,No,No,pavers,Installed,,,Multi-Bike Rack,"{u'type': u'Point', u'coordinates': (-79.3967708309, 43.6400217735)}"
1083,20364734,157,Dan Leckie Way,157 Dan Leckie Way,M5V 4A8,former TORONTO,Toronto,20364648,157,,,,17007,Spadina-Fort York (1010),313029.081,4833333.026,-79.39800554,43.63989311,3819491,119,8,No,No,No,concrete,Installed,,south side planter,Multi-Bike Rack,"{u'type': u'Point', u'coordinates': (-79.3980055327, 43.6398931179)}"
1084,30015516,150,Dan Leckie Way,150 Dan Leckie Way,M5V 0C9,former TORONTO,Toronto,20364648,150,,,,17007,Spadina-Fort York (1010),312993.918,4833303.662,-79.3984418,43.63962919,4336398,120,8,No,No,No,concrete,Installed,,adjacent to central planter,Multi-Bike Rack,"{u'type': u'Point', u'coordinates': (-79.3984418013, 43.6396291899)}"
1085,30018521,60,Carlton St,60 Carlton St,M5B 1J2,former TORONTO,Toronto,14023522,60,,,,3116,Toronto Centre (1313),314475.575,4835797.684,-79.380033,43.66206094,3326675,121,8,No,No,No,concrete,Installed,,rack is already there: bolt down,Multi-Bike Rack,"{u'type': u'Point', u'coordinates': (-79.3800330023, 43.6620609424)}"
1086,30019115,35D,Bathurst St,35D Bathurst St,M5V 2P2,former TORONTO,Toronto,8457361,35,D,,,436,Spadina-Fort York (1010),312728.684,4833591.802,-79.40172821,43.64223429,3017563,122,8,No,No,No,brick pavers,Installed,,,Multi-Bike Rack,"{u'type': u'Point', u'coordinates': (-79.4017249691, 43.6422257158)}"
1087,30025064,78,Tecumseth St,78 Tecumseth St,M5V 0A9,former TORONTO,Toronto,20053421,78,,,,4534,Spadina-Fort York (1010),312428.742,4833682.81,-79.40544143,43.64304804,3274602,123,8,No,No,No,concrete,Installed,,at south side of publication boxes,Multi-Bike Rack,"{u'type': u'Point', u'coordinates': (-79.4054414222, 43.6430480473)}"
1088,30028624,539,Parliament St,539 Parliament St,M4X 1P7,former TORONTO,Toronto,9980335,539,,,,4162,Toronto Centre (1313),315407.262,4836241.236,-79.36847237,43.66604078,3215110,124,8,No,No,No,brick pavers,Installed,,,Multi-Bike Rack,"{u'type': u'Point', u'coordinates': (-79.3684723714, 43.6660407872)}"
1089,30033362,992,College St,992 College St,M6H 1A7,former TORONTO,Toronto,7531273,992,,,,9765,Davenport (909),310572.152,4834825.607,-79.4284417,43.65335149,3269927,125,8,No,No,No,granite,Approved,,no mark,Multi-Bike Rack,"{u'type': u'Point', u'coordinates': (-79.4284417019, 43.6533514907)}"
1090,30033825,636,Queen St E,636 Queen St E,M4M 1G3,former TORONTO,Toronto,11585489,636,,,,4237,Toronto-Danforth (1414),316689.192,4835398.119,-79.35259535,43.65843223,3272256,126,8,No,No,No,concrete,Installed,,,Multi-Bike Rack,"{u'type': u'Point', u'coordinates': (-79.3525953502, 43.6584322328)}"
1091,30035742,44,Lisgar St,44 Lisgar St,,former TORONTO,Toronto,14024655,44,,,,3859,Davenport (909),310976.666,4833574.495,-79.42344119,43.64208654,3277255,127,8,No,No,No,concrete,Installed,,eastern border of Lisgar Park,Multi-Bike Rack,"{u'type': u'Point', u'coordinates': (-79.4234411857, 43.6420865352)}"
1092,30035743,36,Lisgar St,36 Lisgar St,M6J 0C7,former TORONTO,Toronto,14024655,36,,,,3859,Davenport (909),310986.822,4833535.856,-79.42331575,43.64173864,3277451,128,8,No,No,No,concrete,Installed,,ignore markings to south,Multi-Bike Rack,"{u'type': u'Point', u'coordinates': (-79.4233157461, 43.6417386471)}"
1093,30038007,47,Lower River St,47 Lower River St,M5A 0G1,former TORONTO,Toronto,30037989,47,,,,19546,Toronto Centre (1313),316451.975,4835182.885,-79.35554106,43.6564986,3296643,129,24,No,No,No,Concrete/interlock,Installed,,,Multi-Bike Rack,"{u'type': u'Point', u'coordinates': (-79.3555410508, 43.656498597)}"
1094,30039986,92,Fort York Blvd,92 Fort York Blvd,M5V 4A7,former TORONTO,Toronto,30036751,92,,,,15826,Spadina-Fort York (1010),313112.765,4833342.937,-79.39696818,43.6399814,3303574,130,8,No,No,No,pavers,Installed,,,Multi-Bike Rack,"{u'type': u'Point', u'coordinates': (-79.3969681695, 43.6399814003)}"
1095,30069161,35,York St,35 York St,M5J 0C7,former TORONTO,Toronto,13975053,35,,,,4735,Spadina-Fort York (1010),314362.972,4833767.794,-79.3814651,43.64379067,3833298,131,30,No,No,No,,Installed,,indoor and outdoor,Multi-Bike Rack (Angled),"{u'type': u'Point', u'coordinates': (-79.3814651014, 43.6437906732)}"
1096,30072958,1190,Dundas St E,1190 Dundas St E,M4M 0C5,former TORONTO,Toronto,7576995,1190,,,,3334,Toronto-Danforth (1414),317620.269,4836159.204,-79.34103364,43.66526753,4071796,132,8,No,No,No,concrete,Installed,,east side of planter,Multi-Bike Rack,"{u'type': u'Point', u'coordinates': (-79.3410336332, 43.6652675256)}"
1097,30085026,60,Lisgar St,60 Lisgar St,,former TORONTO,Toronto,14024655,60,,,,3859,Davenport (909),310962.44,4833610.873,-79.4236171,43.6424141,4160009,133,8,No,No,No,concrete,Installed,,eastern border of Lisgar Park,Multi-Bike Rack,"{u'type': u'Point', u'coordinates': (-79.4236170997, 43.6424141049)}"
1098,10154425,1,St Clair Ave E,1 St Clair Ave E,M4T 2V7,former TORONTO,Toronto,10154405,1,,,,339,Toronto-St. Paul's (1212),313380.035,4838668.019,-79.39357412,43.68791975,2847275,134,8,Yes,No,No,concrete,Installed,St Clair TTC,,Multi-Bike Rack,"{u'type': u'Point', u'coordinates': (-79.3935708744, 43.6879111568)}"
1099,856375,100,Queen St W,100 Queen St W,M5H 2N1,former TORONTO,Toronto,1145216,100,,,,4238,Spadina-Fort York (1010),314187.308,4834770.892,-79.38362506,43.65282214,4326298,135,40,No,No,No,,Installed,City Hall,,Multi-Bike Rack,"{u'type': u'Point', u'coordinates': (-79.3836250552, 43.6528221423)}"
1100,856375,100,Queen St W,100 Queen St W,M5H 2N1,former TORONTO,Toronto,1145216,100,,,,4238,Spadina-Fort York (1010),314187.308,4834770.892,-79.38362506,43.65282214,4326298,136,40,No,No,No,,Installed,City Hall,,Multi-Bike Rack,"{u'type': u'Point', u'coordinates': (-79.3836250552, 43.6528221423)}"
1101,8408498,2,Bloor St W,2 Bloor St W,M4W 3E2,former TORONTO,Toronto,10759265,2,,,,458,University-Rosedale (1111),313893.86,4836723.343,-79.38723329,43.67040902,2772524,137,24,Yes,No,No,concrete,Installed,Bloor-Yonge TTC,,Multi-Bike Rack,"{u'type': u'Point', u'coordinates': (-79.3872300479, 43.670400436)}"
1102,14171704,300,Victoria St,300 Victoria St,,former TORONTO,Toronto,30075809,300,,,,9790,Toronto Centre (1313),314459.797,4835292.368,-79.38023768,43.65751263,4096755,138,8,No,No,No,concrete,Installed,,,Multi-Bike Rack,"{u'type': u'Point', u'coordinates': (-79.3802376739, 43.6575126332)}"
1103,14171704,300,Victoria St,300 Victoria St,,former TORONTO,Toronto,30075809,300,,,,9790,Toronto Centre (1313),314459.797,4835292.368,-79.38023768,43.65751263,4096755,139,8,No,No,No,concrete,Installed,,,Multi-Bike Rack,"{u'type': u'Point', u'coordinates': (-79.3802376739, 43.6575126332)}"
1104,14171704,300,Victoria St,300 Victoria St,,former TORONTO,Toronto,30075809,300,,,,9790,Toronto Centre (1313),314459.797,4835292.368,-79.38023768,43.65751263,4096755,140,8,No,No,No,concrete,Installed,,,Multi-Bike Rack,"{u'type': u'Point', u'coordinates': (-79.3802376739, 43.6575126332)}"
1105,7641709,26,Dundas St E,26 Dundas St E,M5B 2L6,former TORONTO,Toronto,7641747,26,,,,3334,Toronto Centre (1313),314480.94,4835181.853,-79.37998075,43.65652616,3191929,141,8,No,No,,concrete,Installed,front of walk,"bikes face east, temporary for construction",Multi-Bike Rack,"{u'type': u'Point', u'coordinates': (-79.3799775246, 43.6565175761)}"
1106,10476750,432,Queen St W,432 Queen St W,M5V 2A8,former TORONTO,Toronto,10476749,432,,,,4238,Spadina-Fort York (1010),312977.503,4834289.373,-79.39863357,43.64851069,2506480,142,8,No,No,,concrete,Approved,back of walk,,Multi-Bike Rack,"{u'type': u'Point', u'coordinates': (-79.3986303358, 43.6485021072)}"
1107,10476770,535,Queen St W,535 Queen St W,M5V 2B4,former TORONTO,Toronto,10476749,535,,,,4238,Spadina-Fort York (1010),312912.222,4834224.801,-79.39944378,43.64793017,2896759,143,8,No,No,,concrete,Approved,back of walk,"bikes face east, on 'patio' area",Multi-Bike Rack,"{u'type': u'Point', u'coordinates': (-79.3994405382, 43.6479215867)}"
1108,10476744,577,Queen St W,577 Queen St W,M5V 2B6,former TORONTO,Toronto,14035954,577,,,,4238,Spadina-Fort York (1010),312769.994,4834188.453,-79.40120738,43.64760452,1545270,144,8,No,No,,concrete,Approved,boulevard,,Multi-Bike Rack,"{u'type': u'Point', u'coordinates': (-79.4012041364, 43.6475959429)}"
1109,8031478,6,Denison Ave,6 Denison Ave,M5T 2M4,former TORONTO,Toronto,14020795,6,,,,3287,Spadina-Fort York (1010),312796.851,4834247.66,-79.40087358,43.64813718,2989294,145,8,No,No,,concrete,Approved,boulevard,,Multi-Bike Rack,"{u'type': u'Point', u'coordinates': (-79.4008703417, 43.6481285977)}"
1110,845809,60,Murray St,60 Murray St,M5T 3L9,former TORONTO,Toronto,1144428,60,,,,4037,University-Rosedale (1111),313537.182,4835332.617,-79.39167883,43.65789492,2290088,146,8,No,No,,concrete,Approved,back of walk,part of re-org of Mt Sinai H. parking,Multi-Bike Rack,"{u'type': u'Point', u'coordinates': (-79.3916755977, 43.6578863393)}"
1111,772910,624,Bloor St W,624 Bloor St W,M6G 1K7,former TORONTO,Toronto,1143160,624,,,,458,University-Rosedale (1111),311708.177,4836080.058,-79.41434543,43.66464213,2242898,147,5,No,No,,concrete,Installed,front of walk,angled rack adjacent tree box,Multi-Bike Rack,"{u'type': u'Point', u'coordinates': (-79.4143421803, 43.6646335443)}"
1112,772936,656,Bloor St W,656 Bloor St W,M6G 1K9,former TORONTO,Toronto,1143206,656,,,,458,University-Rosedale (1111),311605.606,4836051.747,-79.41561761,43.66438824,2942115,148,5,No,No,,concrete,Approved,front of walk,angled rack adjacent tree box,Multi-Bike Rack (Angled),"{u'type': u'Point', u'coordinates': (-79.4156143632, 43.6643796536)}"
1113,8416907,675,Bloor St W,675 Bloor St W,M6G 1L3,former TORONTO,Toronto,8416891,675,,,,458,University-Rosedale (1111),311554.096,4835987.991,-79.4162571,43.66381481,2602654,149,8,No,No,,asphalt,Installed,boulevard,moved fr Wood St for Bike Share relocate,Multi-Bike Rack,"{u'type': u'Point', u'coordinates': (-79.416253855, 43.6638062345)}"
1114,37440,998,Woodbine Ave,998 Woodbine Ave,M4C 4C1,EAST YORK,Toronto,1789,998,,,,391,Beaches-East York (1919),319833.009,4838526.921,-79.31353387,43.68654714,1535595,150,8,Yes,No,,concrete,Approved,back of walk,bikes face north at subway access,Multi-Bike Rack,"{u'type': u'Point', u'coordinates': (-79.313530664, 43.686538546)}"
1115,7553175,1184,Queen St W,1184 Queen St W,M6J 1J5,former TORONTO,Toronto,7553178,1184,,,,4238,Davenport (909),310787.501,4833678.97,-79.42578795,43.64303708,2956109,151,14,No,Yes,No,,Installed,,3 posts,Bike Corral,"{u'type': u'Point', u'coordinates': (-79.4257846968, 43.6430284992)}"
1116,8293016,1485,Dupont St,1485 Dupont St,M6P 3S2,former TORONTO,Toronto,14013265,1485,,,,3343,Davenport (909),308816.979,4836207.211,-79.45019058,43.66579933,4160513,152,14,No,Yes,No,,Proposed,,,Bike Corral,"{u'type': u'Point', u'coordinates': (-79.4501905748, 43.6657993325)}"
1117,14069353,192,Spadina Ave,192 Spadina Ave,M5T 2C2,former TORONTO,Toronto,10494196,192,,,,4426,Spadina-Fort York (1010),313056.479,4834448.978,-79.39765214,43.64994647,1871353,153,14,No,Yes,No,,Proposed,,3 posts,Bike Corral,"{u'type': u'Point', u'coordinates': (-79.3976488984, 43.6499378952)}"
1118,854435,50,Portland St,50 Portland St,M5V 2M7,former TORONTO,Toronto,14025624,50,,,,9780,Spadina-Fort York (1010),312870.484,4833721.901,-79.39996544,43.64339526,4254740,154,14,No,Yes,No,,Installed,,,Bike Corral,"{u'type': u'Point', u'coordinates': (-79.3999654357, 43.6433952592)}"
1119,30035793,92,Sudbury St,92 Sudbury St,M6J 0C5,former TORONTO,Toronto,7553518,92,,,,4502,Davenport (909),310998.973,4833492.235,-79.42316564,43.64134589,4328917,155,14,No,Yes,No,,Installed,,councillor request,Bike Corral,"{u'type': u'Point', u'coordinates': (-79.4231656377, 43.6413458973)}"
1120,828085,200,King St E,200 King St E,M5A 3W8,former TORONTO,Toronto,1145266,200,,,,3779,Toronto Centre (1313),315271.688,4834581.231,-79.37018888,43.65110905,2728735,156,14,No,Yes,No,,Installed,,east side of George north of King in No Parking zone,Bike Corral,"{u'type': u'Point', u'coordinates': (-79.3701856495, 43.6511004642)}"
1121,30088196,10,Liberty St,10 Liberty St,M6K 1A5,former TORONTO,Toronto,7553393,10,,,,3847,Spadina-Fort York (1010),311262.195,4833192.268,-79.41990667,43.63864354,4164518,157,8,No,No,,concrete,Approved,front of walk,straight rack,Multi-Bike Rack,"{u'type': u'Point', u'coordinates': (-79.419906672, 43.6386435443)}"
1122,7929399,121,King St W,121 King St W,M5H 3T9,former TORONTO,Toronto,7929394,121,,,,3780,Spadina-Fort York (1010),314239.761,4834200.204,-79.38298801,43.6476931,2321542,158,5,No,No,,pavers,Approved,front of walk,angled rack,Multi-Bike Rack (Angled),"{u'type': u'Point', u'coordinates': (-79.3829847674, 43.6476845202)}"
1123,7929479,141,Adelaide St W,141 Adelaide St W,M5H 3L5,former TORONTO,Toronto,7929478,141,,,,2852,Spadina-Fort York (1010),314124.553,4834341.292,-79.38441368,43.64896454,1855409,159,8,No,No,,granite,Proposed,front of walk,for King St pilot,Multi-Bike Rack,"{u'type': u'Point', u'coordinates': (-79.384410447, 43.6489559551)}"
1124,7929404,150,York St,150 York St,M5H 3S5,former TORONTO,Toronto,7929403,150,,,,4735,Spadina-Fort York (1010),314109.651,4834421.7,-79.38459703,43.6496885,2045337,160,5,No,No,,concrete,Proposed,front of walk,angled rack adjacent tree box,Multi-Bike Rack (Angled),"{u'type': u'Point', u'coordinates': (-79.3845937899, 43.6496799218)}"
1125,8676901,151,Yonge St,151 Yonge St,M5C 2W7,former TORONTO,Toronto,8676900,151,,,,4733,Toronto Centre (1313),314601.188,4834622.156,-79.3785001,43.65148656,2197930,161,5,No,No,,concrete,Approved,front of walk,angled rack adjacent tree box,Multi-Bike Rack (Angled),"{u'type': u'Point', u'coordinates': (-79.3784968736, 43.6514779808)}"
1126,14204767,157,Adelaide St W,157 Adelaide St W,M5H 4E7,former TORONTO,Toronto,7929478,157,,,,2852,Spadina-Fort York (1010),314072.116,4834325.039,-79.38506398,43.6488189,2268248,162,8,No,No,,concrete,Approved,back of walk,Request from Street Furniture,Multi-Bike Rack,"{u'type': u'Point', u'coordinates': (-79.3850607472, 43.6488103116)}"
1127,877900,181,University Ave,181 University Ave,M5H 2X7,former TORONTO,Toronto,1145635,181,,,,4583,Spadina-Fort York (1010),314061.279,4834370.364,-79.38519754,43.64922702,1917050,163,5,No,No,,concrete,Proposed,front of walk,angled rack,Multi-Bike Rack (Angled),"{u'type': u'Point', u'coordinates': (-79.3851943078, 43.6492184326)}"
1128,7929597,22,Duncan St,22 Duncan St,M5H 3G8,former TORONTO,Toronto,7929624,22,,,,3331,Spadina-Fort York (1010),313771.822,4834233.063,-79.38878801,43.64799466,3015504,164,8,No,No,,concrete,Approved,front of walk,straight rack,Multi-Bike Rack,"{u'type': u'Point', u'coordinates': (-79.3887847803, 43.6479860859)}"
1129,12763910,263,Adelaide St W,263 Adelaide St W,M5H 1Y2,former TORONTO,Toronto,12763900,263,,,,2852,Spadina-Fort York (1010),313716.009,4834216.058,-79.38948016,43.64784227,2150387,165,5,No,No,,concrete,Approved,front of walk,angled rack,Multi-Bike Rack (Angled),"{u'type': u'Point', u'coordinates': (-79.3894769208, 43.647833689)}"
1130,14606355,30,Adelaide St E,30 Adelaide St E,M5C 3G8,former TORONTO,Toronto,8313387,30,,,,2851,Toronto Centre (1313),314732.997,4834570.509,-79.37686706,43.65101992,3006210,166,5,No,No,,concrete,Approved,front of walk,angled rack,Multi-Bike Rack (Angled),"{u'type': u'Point', u'coordinates': (-79.3768638205, 43.6510113402)}"
1131,9947960,339,George St,339 George St,M5A 2N2,former TORONTO,Toronto,30073975,339,,,,9743,Toronto Centre (1313),314941.377,4835563.577,-79.37426195,43.65994746,4083034,167,5,No,No,,concrete,Approved,front of walk,angled rack adjacent tree box,Multi-Bike Rack (Angled),"{u'type': u'Point', u'coordinates': (-79.3742619566, 43.6599474628)}"
1132,828038,50,King St E,50 King St E,M5C 1E5,former TORONTO,Toronto,1145520,50,,,,3779,Toronto Centre (1313),314783.393,4834432.243,-79.37624487,43.64977467,3006364,168,5,No,No,,concrete,Approved,front of walk,angled rack,Multi-Bike Rack (Angled),"{u'type': u'Point', u'coordinates': (-79.3762416345, 43.6497660862)}"
1133,30084097,531,Adelaide St W,531 Adelaide St W,M5V 0N8,former TORONTO,Toronto,10223941,531,,,,2852,Spadina-Fort York (1010),312674.384,4833923.885,-79.40239317,43.64521549,4159374,169,5,No,No,,pavers,Approved,front of walk,angled rack,Multi-Bike Rack (Angled),"{u'type': u'Point', u'coordinates': (-79.4023931702, 43.6452154907)}"
1134,30066955,551,Adelaide St W,551 Adelaide St W,M5V 0N8,former TORONTO,Toronto,10223941,551,,,,2852,Spadina-Fort York (1010),312645.46,4833917.962,-79.40275178,43.64516248,3828840,170,5,No,No,,pavers,Proposed,front of walk,angled rack,Multi-Bike Rack (Angled),"{u'type': u'Point', u'coordinates': (-79.4027517828, 43.6451624812)}"
1135,8353525,588,Bloor St W,588 Bloor St W,M6G 1K4,former TORONTO,Toronto,8353520,588,,,,458,University-Rosedale (1111),311825.277,4836138.048,-79.41289269,43.66516302,2568679,171,5,No,No,,concrete,Proposed,front of walk,angled rack adjacent tree box,Multi-Bike Rack (Angled),"{u'type': u'Point', u'coordinates': (-79.4128894478, 43.6651544341)}"
1136,14206202,607,Bloor St W,607 Bloor St W,M6G 1K5,former TORONTO,Toronto,8353520,607,,,,458,University-Rosedale (1111),311794.592,4836067.577,-79.41327409,43.66452897,2210315,172,16,No,No,,pavers,Approved,front of walk,in blvd,Multi-Bike Rack,"{u'type': u'Point', u'coordinates': (-79.413270842, 43.6645203908)}"
1137,7930055,66,Portland St,66 Portland St,M5V 2M6,former TORONTO,Toronto,14025448,66,,,,9780,Spadina-Fort York (1010),312858.634,4833778.408,-79.40011148,43.64390402,4144159,173,8,No,No,,pavers,Approved,front of walk,straight rack,Multi-Bike Rack,"{u'type': u'Point', u'coordinates': (-79.4001114748, 43.6439040274)}"
1138,7929360,80,York St,80 York St,,former TORONTO,Toronto,7930910,80,,,,4735,Spadina-Fort York (1010),314175.525,4834202.624,-79.38378422,43.6477157,2909786,174,5,Yes,No,,concrete,Approved,front of walk,angled rack,Multi-Bike Rack (Angled),"{u'type': u'Point', u'coordinates': (-79.383780993, 43.6477071158)}"
1139,8344830,92,King St E,92 King St E,M5C 2V8,former TORONTO,Toronto,14662429,92,,,,3779,Toronto Centre (1313),314887.764,4834463.544,-79.37495045,43.65005502,2403436,175,8,No,No,,pavers,Approved,front of walk,straight rack,Multi-Bike Rack,"{u'type': u'Point', u'coordinates': (-79.3749472258, 43.6500464292)}"
1140,7930799,124,Spadina Ave,124 Spadina Ave,,former TORONTO,Toronto,7930670,124,,,,4426,Spadina-Fort York (1010),313162.566,4834143.157,-79.39634178,43.64719249,1770550,176,28,No,Yes,No,,Installed,On Camden St,,Bike Corral,"{u'type': u'Point', u'coordinates': (-79.3963385317, 43.6471839085)}"
1141,13991178,213,Delaware Ave,213 Delaware Ave,M6H 2T4,former TORONTO,Toronto,20033433,213,,,,3283,Davenport (909),310617.361,4835792.825,-79.42787406,43.66206598,2874672,177,8,No,Yes,No,,Installed,,,Bike Corral,"{u'type': u'Point', u'coordinates': (-79.4278708182, 43.6620573991)}"
1142,765142,236,Augusta Ave,236 Augusta Ave,M5T 2L7,former TORONTO,Toronto,1144604,236,,,,2918,University-Rosedale (1111),312656.791,4835049.253,-79.40259812,43.65535409,2693536,178,24,No,Yes,No,,Installed,,,Bike Corral,"{u'type': u'Point', u'coordinates': (-79.4025948746, 43.6553455062)}"
1143,30035742,44,Lisgar St,44 Lisgar St,,former TORONTO,Toronto,14024655,44,,,,3859,Davenport (909),310976.666,4833574.495,-79.42344119,43.64208654,3277255,179,14,No,No,Yes,,Approved,,ON HOLD - park construction,Bike Shelter,"{u'type': u'Point', u'coordinates': (-79.4234411857, 43.6420865352)}"
1144,7577064,505,College St,505 College St,M6G 1A5,former TORONTO,Toronto,7577053,505,,,,9765,University-Rosedale (1111),312066.918,4835091.053,-79.40991054,43.65573634,2933285,180,14,No,Yes,No,,Proposed,,Not installed 2017,Bike Corral,"{u'type': u'Point', u'coordinates': (-79.4099072953, 43.6557277596)}"
1145,14600292,1,Adelaide St E,1 Adelaide St E,M5C 2V9,former TORONTO,Toronto,14036810,1,,,,2851,Toronto Centre (1313),314637.566,4834492.545,-79.37804827,43.65031083,3281500,181,5,No,No,,pavers,Approved,front of walk,,Multi-Bike Rack (Angled),"{u'type': u'Point', u'coordinates': (-79.3780482654, 43.6503108279)}"
1146,505931,10,Deauville Lane,10 Deauville Lane,M3C 3J2,NORTH YORK,Toronto,445087,10,,,,5344,Don Valley East (1616),318363.711,4841968.479,-79.33167232,43.71755371,1943625,182,16,No,No,,pavers,Approved,garden,Straight: call Avelino 416 688 921,Multi-Bike Rack,"{u'type': u'Point', u'coordinates': (-79.3316690924, 43.7175451152)}"
1147,9085483,108,Vine Ave,108 Vine Ave,M6P 1V7,former TORONTO,Toronto,9085469,108,,,,4606,Parkdale-High Park (404),307344.21,4836331.822,-79.46845517,43.66693608,3016040,183,8,No,No,,concrete,Approved,back of walk,,Multi-Bike Rack,"{u'type': u'Point', u'coordinates': (-79.4684519109, 43.6669274964)}"
1148,828220,145,King St W,145 King St W,M5H 1J8,former TORONTO,Toronto,1145855,145,,,,3780,Spadina-Fort York (1010),314164.134,4834174.674,-79.38392591,43.64746426,1622900,184,8,Yes,No,,concrete,Installed,front of walk,,Multi-Bike Rack,"{u'type': u'Point', u'coordinates': (-79.38392268, 43.6474556716)}"
1149,14204767,157,Adelaide St W,157 Adelaide St W,M5H 4E7,former TORONTO,Toronto,7929478,157,,,,2852,Spadina-Fort York (1010),314072.116,4834325.039,-79.38506398,43.6488189,2268248,185,8,No,No,,pavers,Approved,front of walk,,Multi-Bike Rack,"{u'type': u'Point', u'coordinates': (-79.3850607472, 43.6488103116)}"
1150,828080,187,King St E,187 King St E,M5A 1J5,former TORONTO,Toronto,1145266,187,,,,3779,Toronto Centre (1313),315251.53,4834525.652,-79.37043985,43.65060905,2173269,186,5,No,No,,pavers,Approved,front of walk,,Multi-Bike Rack (Angled),"{u'type': u'Point', u'coordinates': (-79.3704366169, 43.6506004624)}"
1151,7730263,2,Carlton St,2 Carlton St,M5B 1J3,former TORONTO,Toronto,14023521,2,,,,3116,Toronto Centre (1313),314244.746,4835741.261,-79.38289926,43.66156461,2630614,187,5,Yes,No,,concrete,Approved,front of walk,,Multi-Bike Rack (Angled),"{u'type': u'Point', u'coordinates': (-79.3828960214, 43.6615560195)}"
1152,30101226,25,Berwick Ave,25 Berwick Ave,,former TORONTO,Toronto,14024072,25,,,,3001,Toronto-St. Paul's (1212),312984.681,4840432.946,-79.39844814,43.70380221,4257862,188,8,No,No,,concrete,Installed,front of walk,adjacent previous rack,Multi-Bike Rack,"{u'type': u'Point', u'coordinates': (-79.3984481408, 43.7038022114)}"
1153,10180378,322,King St W,322 King St W,M5V 1J2,former TORONTO,Toronto,10180374,322,,,,3780,Spadina-Fort York (1010),313699.727,4834119.778,-79.38968358,43.64697581,2290025,189,5,No,No,,pavers,Approved,front of walk,,Multi-Bike Rack (Angled),"{u'type': u'Point', u'coordinates': (-79.3896803387, 43.646967234)}"
1154,8417253,329,Geary Ave,329 Geary Ave,M6H 2C6,former TORONTO,Toronto,14630189,329,,,,3490,Davenport (909),309405.098,4836518.313,-79.44289866,43.66860483,1777412,190,8,No,No,,asphalt,Approved,back of walk,,Multi-Bike Rack,"{u'type': u'Point', u'coordinates': (-79.442895411, 43.6685962542)}"
1155,8676866,33,Yonge St,33 Yonge St,M5E 1G4,former TORONTO,Toronto,8676863,33,,,,4733,Toronto Centre (1313),314756.126,4834187.08,-79.3765874,43.64756824,2689237,191,5,No,No,,pavers,Installed,front of walk,,Multi-Bike Rack (Angled),"{u'type': u'Point', u'coordinates': (-79.3765841655, 43.6475596554)}"
1156,10364794,416,Dawes Rd,416 Dawes Rd,M4B 2E8,EAST YORK,Toronto,10364790,416,,,,88,Beaches-East York (1919),321143.187,4840159.076,-79.29723304,43.70121089,2338623,192,8,No,No,,concrete,Installed,back of walk,S side of library,Multi-Bike Rack,"{u'type': u'Point', u'coordinates': (-79.2972298271, 43.7012022929)}"
1157,3739887,475,Yonge St,475 Yonge St,M4Y 1X7,former TORONTO,Toronto,3739890,475,,,,4733,Toronto Centre (1313),314236.891,4835850.823,-79.38299474,43.66255092,2963240,193,5,No,No,,concrete,Approved,front of walk,,Multi-Bike Rack (Angled),"{u'type': u'Point', u'coordinates': (-79.3829914989, 43.6625423313)}"
1158,772833,481,Bloor St W,481 Bloor St W,M5S 1X9,former TORONTO,Toronto,1142870,481,,,,458,University-Rosedale (1111),312290.721,4836205.138,-79.40712045,43.66576237,1755303,194,8,No,No,,asphalt,Approved,boulevard,straight adjacent to current one,Multi-Bike Rack,"{u'type': u'Point', u'coordinates': (-79.4071172093, 43.6657537894)}"
1159,10223681,499,King St W,499 King St W,M5V 1K4,former TORONTO,Toronto,10223667,499,,,,3780,Spadina-Fort York (1010),313068.655,4833859.139,-79.39751022,43.64463699,2755281,195,8,No,No,,concrete,Approved,front of walk,,Multi-Bike Rack,"{u'type': u'Point', u'coordinates': (-79.3975069873, 43.6446284116)}"
1160,2854061,525,University Ave,525 University Ave,M5G 2L3,former TORONTO,Toronto,2854059,525,,,,4583,University-Rosedale (1111),313816.151,4835151.153,-79.38822319,43.65625818,2167439,196,8,No,No,,pavers,Proposed,front of walk,,Multi-Bike Rack,"{u'type': u'Point', u'coordinates': (-79.3882199503, 43.6562495915)}"
1161,7792696,555,University Ave,555 University Ave,M5G 1X8,former TORONTO,Toronto,7792694,555,,,,4583,University-Rosedale (1111),313879.359,4835274.995,-79.38743746,43.65737215,1591293,197,8,No,No,,concrete,Proposed,front of walk,,Multi-Bike Rack,"{u'type': u'Point', u'coordinates': (-79.387434232, 43.6573635657)}"
1162,10180175,587,King St W,587 King St W,M5V 1M5,former TORONTO,Toronto,14674277,587,,,,3780,Spadina-Fort York (1010),312852.632,4833815.287,-79.40018856,43.64424464,2266439,198,8,No,No,,concrete,Approved,front of walk,,Multi-Bike Rack,"{u'type': u'Point', u'coordinates': (-79.4001853211, 43.6442360535)}"
1163,14206202,607,Bloor St W,607 Bloor St W,M6G 1K5,former TORONTO,Toronto,8353520,607,,,,458,University-Rosedale (1111),311794.592,4836067.577,-79.41327409,43.66452897,2210315,199,5,No,No,,concrete,Approved,front of walk,angled rack adjacent tree box,Multi-Bike Rack (Angled),"{u'type': u'Point', u'coordinates': (-79.413270842, 43.6645203908)}"
1164,14235368,661,University Ave,661 University Ave,M5G 1M1,former TORONTO,Toronto,7792702,661,,,,4583,University-Rosedale (1111),313708.597,4835506.243,-79.38955076,43.65945575,2841260,200,5,No,No,,pavers,Proposed,front of walk,,Multi-Bike Rack (Angled),"{u'type': u'Point', u'coordinates': (-79.3895475175, 43.6594471708)}"
1165,7792705,671,University Ave,671 University Ave,,former TORONTO,Toronto,7792702,671,,,,4583,University-Rosedale (1111),313666.306,4835545.891,-79.39007445,43.65981315,2981787,201,8,Yes,No,,concrete,Proposed,north side: TTC,,Multi-Bike Rack,"{u'type': u'Point', u'coordinates': (-79.3900712068, 43.659804561)}"
1166,7570903,962,Queen St W,962 Queen St W,M6J 1G8,former TORONTO,Toronto,7570894,962,,,,4238,Spadina-Fort York (1010),311477.897,4833871.941,-79.41722809,43.6447682,3038700,202,5,No,No,,concrete,Installed,front of walk,,Multi-Bike Rack (Angled),"{u'type': u'Point', u'coordinates': (-79.4172248355, 43.6447596251)}"
1167,20068494,1151,Queen St W,1151 Queen St W,M6J 1J4,former TORONTO,Toronto,7553178,1151,,,,4238,Davenport (909),310887.16,4833661.879,-79.42455285,43.64288243,2549364,203,14,No,Yes,No,,Installed,,,Bike Corral,"{u'type': u'Point', u'coordinates': (-79.4245496133, 43.6428738482)}"
1168,7792447,171,Dundas St W,171 Dundas St W,M5G 1C7,former TORONTO,Toronto,7792444,171,,,,558,Spadina-Fort York (1010),313979.72,4835019.807,-79.38619754,43.65507388,2522240,204,14,No,Yes,No,,Proposed,,,Bike Corral,"{u'type': u'Point', u'coordinates': (-79.3861942983, 43.6550653012)}"
1169,30012845,245,Wallace Ave,245 Wallace Ave,M6H 1V5,former TORONTO,Toronto,14013655,245,,,,4617,Davenport (909),309110.374,4835754.684,-79.44655617,43.66172434,3813655,205,14,No,Yes,No,,Proposed,,,Bike Corral,"{u'type': u'Point', u'coordinates': (-79.4465561733, 43.6617243418)}"
1170,7641780,251,Victoria St,251 Victoria St,M5B 1T8,former TORONTO,Toronto,7641770,251,,,,9790,Toronto Centre (1313),314555.816,4835102.749,-79.3790539,43.65581313,2062125,206,14,No,Yes,No,,Proposed,,,Bike Corral,"{u'type': u'Point', u'coordinates': (-79.3790506572, 43.6558045563)}"
1171,9942213,268,College St,268 College St,M5T 1S1,former TORONTO,Toronto,14022731,268,,,,9765,University-Rosedale (1111),312824.186,4835360.874,-79.40051496,43.65814872,3298560,207,14,No,Yes,No,,Proposed,,,Bike Corral,"{u'type': u'Point', u'coordinates': (-79.4005149554, 43.6581487248)}"
1172,10222743,325,King St W,325 King St W,M5V 1J5,former TORONTO,Toronto,10222742,325,,,,3780,Spadina-Fort York (1010),313591.495,4834027.582,-79.39102671,43.64614721,2364947,208,14,No,Yes,No,,Proposed,,,Bike Corral,"{u'type': u'Point', u'coordinates': (-79.391023464, 43.6461386323)}"
1173,7929471,360,Bay St,360 Bay St,M5H 2V6,former TORONTO,Toronto,7929469,360,,,,2962,Spadina-Fort York (1010),314363.975,4834538.144,-79.38144226,43.65073343,2024744,209,28,No,Yes,No,,Proposed,,,Bike Corral,"{u'type': u'Point', u'coordinates': (-79.3814390312, 43.6507248479)}"
1174,10223672,455,King St W,455 King St W,M5V 1K4,former TORONTO,Toronto,10223667,455,,,,3780,Spadina-Fort York (1010),313188.566,4833899.755,-79.39602325,43.64500125,2896822,210,14,No,Yes,No,,Proposed,,,Bike Corral,"{u'type': u'Point', u'coordinates': (-79.3960200183, 43.6449926684)}"
1175,828038,50,King St E,50 King St E,M5C 1E5,former TORONTO,Toronto,1145520,50,,,,3779,Toronto Centre (1313),314783.393,4834432.243,-79.37624487,43.64977467,3006364,211,14,No,Yes,No,,Proposed,,,Bike Corral,"{u'type': u'Point', u'coordinates': (-79.3762416345, 43.6497660862)}"
1176,30043514,58,Macaulay Ave,58 Macaulay Ave,M6P 3P6,former TORONTO,Toronto,30043036,58,,,,20848,Davenport (909),308564.372,4835722.005,-79.45332621,43.66143315,4318570,212,14,No,Yes,No,,Proposed,,,Bike Corral,"{u'type': u'Point', u'coordinates': (-79.4533262142, 43.6614331515)}"
1177,7846349,76,Kensington Ave,76 Kensington Ave,M5T 2K1,former TORONTO,Toronto,7846321,76,,,,9813,University-Rosedale (1111),312791.671,4834960.543,-79.40092724,43.65455414,2754723,213,14,No,Yes,No,,Installed,,,Bike Corral,"{u'type': u'Point', u'coordinates': (-79.4009240054, 43.6545455602)}"
1178,7792706,700,University Ave,700 University Ave,M5G 1X7,former TORONTO,Toronto,7792702,700,,,,4583,University-Rosedale (1111),313576.341,4835457.248,-79.39119131,43.65901631,2429229,214,14,No,Yes,,,Installed,,,Bike Corral,"{u'type': u'Point', u'coordinates': (-79.3911880758, 43.6590077232)}"
1179,879005,1,Wales Ave,1 Wales Ave,M5T 1J2,former TORONTO,Toronto,1144936,1,,,,4615,University-Rosedale (1111),312732.96,4834804.254,-79.4016574,43.65314796,2801910,215,14,No,Yes,,,Proposed,,,Bike Corral,"{u'type': u'Point', u'coordinates': (-79.4016541643, 43.6531393779)}"
1180,10223856,267,Richmond St W,267 Richmond St W,M5V 3M6,former TORONTO,Toronto,10223853,267,,,,4277,Spadina-Fort York (1010),313539.582,4834315.942,-79.3916623,43.64873488,4146385,216,14,No,Yes,,,Installed,,,Bike Corral,"{u'type': u'Point', u'coordinates': (-79.3916622947, 43.6487348732)}"
1181,8292978,300,Campbell Ave,300 Campbell Ave,M6P 3V6,former TORONTO,Toronto,14013754,300,,,,3109,Davenport (909),308820.324,4836193.872,-79.45014919,43.66567924,4144320,217,14,No,Yes,No,,Installed,In pay and display,,Bike Corral,"{u'type': u'Point', u'coordinates': (-79.4501491971, 43.6656792457)}"
1182,13971017,1175,Dundas St E,1175 Dundas St E,,former TORONTO,Toronto,7576983,1175,,,,3334,Toronto-Danforth (1414),317561.812,4836069.312,-79.34176383,43.66446797,2218326,218,5,No,No,,concrete,Installed,back of walk,Angled,Multi-Bike Rack (Angled),"{u'type': u'Point', u'coordinates': (-79.3417606, 43.6644593861)}"
1183,857005,1360,Queen St W,1360 Queen St W,M6K 1L7,former TORONTO,Toronto,1146832,1360,,,,4238,Parkdale-High Park (404),310220.593,4833523.134,-79.43281636,43.64163869,2589451,219,8,No,No,,concrete,Installed,back of walk,Stacker,Multi-Bike Rack,"{u'type': u'Point', u'coordinates': (-79.4328131013, 43.6416301079)}"
1184,9212134,166,Alberta Ave,166 Alberta Ave,,former TORONTO,Toronto,9212137,166,,,,404,Davenport (909),310122.389,4837820.836,-79.4339912,43.68032447,3187415,220,5,No,No,,concrete,Installed,end of Alberta,Angled,Multi-Bike Rack (Angled),"{u'type': u'Point', u'coordinates': (-79.4339879436, 43.6803158877)}"
1185,10906828,180,Elizabeth St,180 Elizabeth St,,former TORONTO,Toronto,10906830,180,,,,9766,University-Rosedale (1111),313957.092,4835320.861,-79.38647296,43.65778405,1576283,221,5,No,No,,concrete,Installed,front of walk,Angled,Multi-Bike Rack (Angled),"{u'type': u'Point', u'coordinates': (-79.3864697233, 43.6577754678)}"
1186,12464520,2246,Lake Shore Blvd W,2246 Lake Shore Blvd W,M8V 1A5,ETOBICOKE,Toronto,12464517,2246,,,,1962,Etobicoke-Lakeshore (303),306134.015,4831228.952,-79.48347414,43.6210064,2897074,222,8,No,No,,concrete,Installed,back of walk,Stacker,Multi-Bike Rack,"{u'type': u'Point', u'coordinates': (-79.4834708719, 43.6209978265)}"
1187,3259899,25,Overlea Blvd,25 Overlea Blvd,M4H 1P9,EAST YORK,Toronto,3259897,25,,,,278,Don Valley West (1515),316904.079,4840499.829,-79.34981987,43.70435929,3136158,223,8,No,No,,concrete pad,Installed,boulevard,Stacker,Multi-Bike Rack,"{u'type': u'Point', u'coordinates': (-79.3498166394, 43.7043506933)}"
1188,7796281,285,Dundas St W,285 Dundas St W,M5T 1G1,former TORONTO,Toronto,7796276,285,,,,558,Spadina-Fort York (1010),313600.062,4834924.165,-79.3909059,43.65421756,2196493,224,5,No,No,,concrete,Proposed,front of walk,Angled,Multi-Bike Rack (Angled),"{u'type': u'Point', u'coordinates': (-79.3909026634, 43.6542089842)}"
1189,7777919,3060,Yonge St,3060 Yonge St,,former TORONTO,Toronto,7762807,3060,,,,4733,Eglinton-Lawrence (808),312654.175,4842807.314,-79.40251751,43.72518665,2681082,225,8,Yes,No,,concrete,Proposed,front of walk,Stacker,Multi-Bike Rack,"{u'type': u'Point', u'coordinates': (-79.4025142659, 43.7251780536)}"
1190,7850057,3205,Yonge St,3205 Yonge St,M4N 2L3,former TORONTO,Toronto,7850028,3205,,,,4733,Don Valley West (1515),312638.088,4843122.038,-79.40271259,43.72801972,1694832,226,8,No,No,,concrete,Installed,back of walk,Stacker,Multi-Bike Rack,"{u'type': u'Point', u'coordinates': (-79.4027093519, 43.7280111262)}"
1191,8417594,384,Bloor St W,384 Bloor St W,M5S 1X2,former TORONTO,Toronto,8417592,384,,,,458,University-Rosedale (1111),312333.643,4836267.96,-79.40658735,43.66632742,2164649,227,8,No,No,,asphalt,Installed,,Stacker,Multi-Bike Rack,"{u'type': u'Point', u'coordinates': (-79.4065841126, 43.6663188369)}"
1192,8680823,4,Thorncliffe Park Dr,4 Thorncliffe Park Dr,M4H 1H1,EAST YORK,Toronto,8680820,4,,,,354,Don Valley West (1515),316815.213,4840701.993,-79.35091797,43.70618046,2817076,228,8,No,No,,concrete pad,Installed,boulevard,Stacker,Multi-Bike Rack,"{u'type': u'Point', u'coordinates': (-79.3509147456, 43.7061718642)}"
1193,7730103,415,Yonge St,415 Yonge St,M5B 2E7,former TORONTO,Toronto,7730098,415,,,,4733,Toronto Centre (1313),314319.986,4835544.323,-79.38196661,43.65978236,3836233,229,8,No,No,,concrete,Installed,front of walk,Stacker,Multi-Bike Rack,"{u'type': u'Point', u'coordinates': (-79.3819666068, 43.6597823659)}"
1194,6349941,438,University Ave,438 University Ave,M5G 2K8,former TORONTO,Toronto,6349934,438,,,,4583,Spadina-Fort York (1010),313771.549,4834941.469,-79.38877963,43.65437128,1712532,230,8,Yes,No,,concrete,Installed,front of walk,Stacker,Multi-Bike Rack,"{u'type': u'Point', u'coordinates': (-79.3887763977, 43.6543626946)}"
1195,30013532,5,Sheppard Ave E,5 Sheppard Ave E,M2N 0G4,NORTH YORK,Toronto,11835329,5,,,,6698,Willowdale (1818),312062.621,4846830.834,-79.4098055,43.7614092,1769682,231,8,No,No,,concrete,Installed,front of walk,Stacker,Multi-Bike Rack,"{u'type': u'Point', u'coordinates': (-79.4098022448, 43.7614006012)}"
1196,3841975,5100,Yonge St,5100 Yonge St,M2N 5V7,NORTH YORK,Toronto,3841982,5100,,,,4733,Willowdale (1818),311652.392,4847482.236,-79.41488874,43.76726788,3837871,232,64,No,No,,,Installed,,,Multi-Bike Rack,"{u'type': u'Point', u'coordinates': (-79.414888745, 43.7672678892)}"
1197,785468,703,College St,703 College St,M6G 1C2,former TORONTO,Toronto,1144625,703,,,,9765,University-Rosedale (1111),311416.421,4835017.195,-79.41797607,43.65507759,1591368,233,8,No,No,,asphalt,Proposed,boulevard,Stacker,Multi-Bike Rack,"{u'type': u'Point', u'coordinates': (-79.4179728257, 43.6550690097)}"
1198,14121163,750,Bay St,750 Bay St,M5G 1N6,former TORONTO,Toronto,7792579,750,,,,2962,University-Rosedale (1111),314000.907,4835530.046,-79.38592618,43.65966645,2104056,234,8,No,No,,pavers,Installed,front of walk,Stacker,Multi-Bike Rack,"{u'type': u'Point', u'coordinates': (-79.3859229381, 43.6596578703)}"
1199,8695865,1210,Yonge St,1210 Yonge St,M4T 1W1,former TORONTO,Toronto,8681095,1210,,,,4733,Toronto-St. Paul's (1212),313528.694,4837983.272,-79.39174119,43.68175441,2973936,235,10,Yes,No,,concrete,Installed,front of walk,,Multi-Bike Rack,"{u'type': u'Point', u'coordinates': (-79.3917379554, 43.6817458182)}"
1200,11272589,2190,Yonge St,2190 Yonge St,M4S 2B8,former TORONTO,Toronto,14230407,2190,,,,4733,Toronto-St. Paul's (1212),312992.021,4840603.6,-79.39835772,43.70534682,1657924,236,16,Yes,No,,concrete,Installed,front of walk,,Multi-Bike Rack,"{u'type': u'Point', u'coordinates': (-79.398354474, 43.7053382317)}"
1201,30114495,2391,Lake Shore Blvd W,2391 Lake Shore Blvd W,M8V 1B7,ETOBICOKE,Toronto,913792,2391,,,,1962,Etobicoke-Lakeshore (303),305739.492,4830572.414,-79.48836035,43.61508866,4332502,237,8,No,No,,paver,Installed,adjacent to planter,,Multi-Bike Rack,"{u'type': u'Point', u'coordinates': (-79.4883603536, 43.6150886595)}"
1202,7568709,2404-2406,Lake Shore Blvd W,2404-2406 Lake Shore Blvd W,M8V 1C4,ETOBICOKE,Toronto,7568677,2404,,2406,,1962,Etobicoke-Lakeshore (303),305682.685,4830548.916,-79.48906745,43.61488579,2151245,238,8,No,No,,paver,Installed,adjacent to planter,,Multi-Bike Rack,"{u'type': u'Point', u'coordinates': (-79.4890641907, 43.6148772137)}"
1203,30032007,390,Cherry St,390 Cherry St,M5A 0E2,former TORONTO,Toronto,30029398,390,,,,3154,Spadina-Fort York (1010),316313.874,4834524.219,-79.35726724,43.65057187,3233254,239,32,No,No,,brick paver,Approved,front of walk,,Multi-Bike Rack,"{u'type': u'Point', u'coordinates': (-79.3572672377, 43.6505718789)}"
1204,30114600,4,Boulton Ave,4 Boulton Ave,M4M 2J3,former TORONTO,Toronto,20043108,4,,,,3039,Toronto-Danforth (1414),317141.444,4835554.237,-79.34698469,43.65983013,4333574,240,6,No,No,,concrete,Approved,back of walk,,Multi-Bike Rack (Angled),"{u'type': u'Point', u'coordinates': (-79.3469846875, 43.6598301324)}"
1205,10335148,538,Lansdowne Ave,538 Lansdowne Ave,,former TORONTO,Toronto,14012788,538,,,,3814,Davenport (909),309375.727,4835442.373,-79.44327199,43.65892012,1637657,241,32,Yes,No,,concrete,Approved,back of walk,,Multi-Bike Rack,"{u'type': u'Point', u'coordinates': (-79.4432687409, 43.6589115384)}"